S-NET B                 
1 43187U 18014H   23004.65019081  .00003042  00000+0  25685-3 0  9993
2 43187  97.6468 271.4152 0010767 346.7505  13.3433 14.98810080269045
S-NET A                 
1 43188U 18014J   23004.65048291  .00003034  00000+0  25624-3 0  9993
2 43188  97.6472 271.4911 0010753 346.8326  13.2615 14.98810557269041
S-NET C                 
1 43189U 18014K   23004.65166308  .00003130  00000+0  26423-3 0  9999
2 43189  97.6464 271.4021 0010694 346.1953  13.8976 14.98804598267590
FENGMANIU-1 (FMN-1)     
1 43192U 18015A   23004.82115470  .00093882  00000+0  12789-2 0  9999
2 43192  97.5514 162.8416 0008303  14.0459  95.7326 15.57182406274540
SHAONIAN XING           
1 43199U 18015H   23004.81237889  .00036101  00000+0  80368-3 0  9994
2 43199  97.5324 155.1847 0011626  41.3951  64.6718 15.43473444274394
LUOJIA-1 01             
1 43485U 18048B   23004.87424094  .00001846  00000+0  26359-3 0  9998
2 43485  97.9204  87.8113 0009728 269.8026  90.2064 14.77880166247613
SURFSAT                 
1 43614U 18070B   23004.53614036  .00361491  47984-4  12403-2 0  9993
2 43614  92.9930 185.1259 0005371 307.4109  52.6683 15.89623154242533
CP7 (DAVE)              
1 43615U 18070C   23004.48040057  .00199423  00000+0  10345-2 0  9994
2 43615  92.9947 184.5526 0006180 307.2510  52.8202 15.80467812242431
CZ-4B R/B               
1 43656U 18081B   23004.86950822  .00000282  00000+0  10364-3 0  9999
2 43656  99.4227 160.3120 0207157 285.9286  71.9156 14.30676616219151
CUBEBEL-1 (BSUSAT-1)    
1 43666U 18083E   23004.95049279  .00018714  00000+0  69010-3 0  9998
2 43666  97.4029  36.6888 0011960 350.7898  93.6528 15.27776593232196
CHANGSHAGAOXIN (TY 4-01)
1 43669U 18083H   23004.96085014  .00015451  00000+0  60680-3 0  9998
2 43669  97.3987  32.0372 0008646 354.0106  97.6099 15.25759072231989
TEN-KOH                 
1 43677U 18084G   23004.62492912  .00002029  00000+0  20691-3 0  9995
2 43677  97.9883 141.9309 0014979 332.8927  27.1507 14.91762432227668
DIWATA-2B               
1 43678U 18084H   23004.86559462  .00001167  00000+0  11910-3 0  9992
2 43678  97.9957 145.9058 0009500 348.8728  11.2305 14.92604898227893
STARS-AO                
1 43679U 18084J   23004.84900143  .00003967  00000+0  37115-3 0  9992
2 43679  97.9982 148.4005 0008551 351.2359   8.8710 14.94674804228018
AUTCUBE 2               
1 43681U 18084K   23004.62797006  .00002802  00000+0  26948-3 0  9992
2 43681  97.9952 146.4988 0008887 348.5972  11.5044 14.93826170227876
METOP-C                 
1 43689U 18087A   23004.89164156  .00000146  00000+0  86550-4 0  9991
2 43689  98.7086  66.8609 0003563 158.7897 201.3428 14.21497926215921
IRVINE01                
1 43693U 18088D   23004.46166983  .00338412  00000+0  26582-2 0  9997
2 43693  85.0151 172.2932 0006728  16.3795 343.7689 15.70507518231327
ES'HAIL 2               
1 43700U 18090A   23004.81757828  .00000157  00000+0  00000+0 0  9998
2 43700   0.0177  39.2370 0001891 280.7067 104.3120  1.00273029 15049
FACSAT-1                
1 43721U 18096C   23004.84925137  .00048804  00000+0  94459-3 0  9996
2 43721  97.3335  90.5863 0011219  47.3857  50.1138 15.47520110228981
CENTAURI-2              
1 43722U 18096D   23004.51630258  .00107796  00000+0  14476-2 0  9994
2 43722  97.3387  94.0156 0008648  30.3611 329.8144 15.57514381229141
3CAT-1                  
1 43728U 18096K   23004.87221232  .00090405  00000+0  12615-2 0  9998
2 43728  97.3420  95.1076 0008660  38.8618 321.3258 15.56542193229236
REAKTOR HELLO WORLD     
1 43743U 18096AA  23004.86996315  .00029514  00000+0  72096-3 0  9998
2 43743  97.3384  89.5136 0013913  57.1936 303.0649 15.40690181228896
ELYSIUM STAR 2 & LFF    
1 43760U 18099C   23004.89960470  .00009830  00000+0  77146-3 0  9996
2 43760  97.5974  74.1353 0006098 291.0825  68.9747 15.01116770223317
2018-099D               
1 43761U 18099D   22364.16451223  .00000967  00000+0  90101-4 0  9995
2 43761  97.6006  65.4701 0013331 338.8172  21.2496 14.96445948222281
AISTECHSAT 2            
1 43768U 18099L   23004.87778004  .00002916  00000+0  26021-3 0  9996
2 43768  97.5944  69.4275 0010084 319.9600  40.0877 14.96685562222804
FOX-1CLIFF (AO-95)      
1 43770U 18099N   23004.12432717  .00004872  00000+0  42099-3 0  9991
2 43770  97.5981  70.1291 0012556 328.5535  31.4935 14.97608481223035
RANGE-A                 
1 43772U 18099Q   23004.81579404  .00005841  00000+0  49066-3 0  9992
2 43772  97.6126  73.0154 0011979 312.5850  47.4362 14.98631358223176
RANGE-B                 
1 43773U 18099R   23004.65371594  .00003849  00000+0  33996-3 0  9996
2 43773  97.5899  69.1615 0011584 313.3094  46.7161 14.96890971223087
2018-099T               
1 43775U 18099T   23004.65681512  .00003327  00000+0  29559-3 0  9993
2 43775  97.5979  70.5771 0012812 317.6645  42.3587 14.96741237223096
MOVE-II                 
1 43780U 18099Y   23004.13274903  .00007085  00000+0  57761-3 0  9995
2 43780  97.6042  71.8610 0010144 330.1755  29.8889 14.99731187223112
SNUSAT-2                
1 43782U 18099AA  23004.88880906  .00003570  00000+0  30928-3 0  9996
2 43782  97.5985  71.3834 0011238 309.8380  50.1853 14.97694324223177
SNUGLITE                
1 43784U 18099AC  23004.82421748  .00004020  00000+0  34442-3 0  9993
2 43784  97.5943  70.9440 0013710 316.3200  43.6937 14.98030349223196
ITASAT 1                
1 43786U 18099AE  23004.84207517  .00003854  00000+0  33414-3 0  9995
2 43786  97.6001  71.8411 0013594 315.2394  44.7730 14.97597912223189
KAZSCISAT-1             
1 43787U 18099AF  23004.65994674  .00007795  00000+0  63846-3 0  9992
2 43787  97.5938  71.1029 0010501 313.8878  46.1477 14.99514194223235
EAGLET-I                
1 43790U 18099AJ  23004.92528514  .00003517  00000+0  30564-3 0  9991
2 43790  97.5999  72.4616 0011555 320.9756  39.0631 14.97583081222934
ESEO                    
1 43792U 18099AL  23004.88781120  .00001239  00000+0  11332-3 0  9993
2 43792  97.5949  71.3050 0012156 319.3710  40.6604 14.96703089222952
CSIM-FD                 
1 43793U 18099AM  23004.81746982  .00007337  00000+0  58717-3 0  9997
2 43793  97.6105  73.6656 0014456 310.3207  49.6753 15.00391026223058
ASTROCAST 0.1           
1 43798U 18099AS  23004.61674813  .00007158  00000+0  59055-3 0  9990
2 43798  97.6049  73.0316 0010245 300.3500  59.6709 14.99268439223234
JY1SAT (JO-97)          
1 43803U 18099AX  23004.64428883  .00004996  00000+0  42324-3 0  9992
2 43803  97.5961  71.4915 0013258 313.5786  46.4335 14.98365405223182
SUOMI-100               
1 43804U 18099AY  23004.81290920  .00004236  00000+0  36107-3 0  9990
2 43804  97.5982  71.5286 0013307 317.4689  42.5502 14.98206437223214
AL-FARABI 2             
1 43805U 18099AZ  22364.16247822  .00003922  00000+0  32713-3 0  9990
2 43805  97.6006  66.7831 0014644 333.7607  26.2875 14.99080958222402
CENTAURI-1              
1 43809U 18099BD  23004.83126186  .00003035  00000+0  26386-3 0  9993
2 43809  97.5974  71.7753 0013948 316.3021  43.7096 14.97639585222909
CHOMPTT                 
1 43855U 18104G   23004.19403113  .00015887  00000+0  51619-3 0  9993
2 43855  85.0341 276.9427 0012100 201.3478 158.7266 15.31722215225401
DAVINCI                 
1 43857U 18104J   23004.23693704  .00232518  00000+0  21888-2 0  9993
2 43857  85.0163 270.9337 0005285 123.6555 236.5216 15.66371036225901
UWE-4                   
1 43880U 18111E   23004.62730075  .00006948  00000+0  56841-3 0  9997
2 43880  97.6614 272.4260 0012868  19.8429 340.3292 14.99584033219831
ZACUBE-2                
1 43907U 18111AH  23004.97044675  .00014088  00000+0  46046-3 0  9999
2 43907  97.1633 249.2267 0020095  81.7323  42.9543 15.31632885224092
MICRODRAGON             
1 43935U 19003D   23004.78685035  .00011492  00000+0  41249-3 0  9997
2 43935  97.1195  30.9484 0015839 172.0447 188.1048 15.28712723220425
AOBA VELOX-IV           
1 43940U 19003J   23004.60524209  .00086362  00000+0  14039-2 0  9993
2 43940  97.1060  40.9658 0013556 126.5219 233.7285 15.52294105221158
M6P                     
1 44109U 19018AF  23004.47282092  .00045014  00000+0  79966-3 0  9993
2 44109  97.3853  96.7075 0038276 117.6035 242.9111 15.49228734210466
FORMOSAT 7-4            
1 44350U 19036M   23004.89525691  .00007264  00000+0  40156-3 0  9996
2 44350  24.0008  76.5387 0005173 338.1797  21.8487 15.11096217193952
PAINANI 1               
1 44365U 19037A   23004.48794851  .00797414  30269-3  14849-2 0  9990
2 44365  44.9810 286.9041 0012399 178.4682 181.6268 16.00129367198768
METEOR-M2 2             
1 44387U 19038A   23004.85001009  .00000056  00000+0  44014-4 0  9996
2 44387  98.7522 329.2947 0002308  67.4596 292.6836 14.23738228182060
VDNH-80                 
1 44392U 19038G   23004.89117113  .00013897  00000+0  62469-3 0  9990
2 44392  97.6576 342.1421 0018421 148.8421 241.5000 15.21099316193423
D-STAR ONE (LIGHTSAT)   
1 44393U 19038H   23004.68645655  .00018549  00000+0  82706-3 0  9990
2 44393  97.6590 341.8763 0018746 149.7651 210.4670 15.21304504193583
AMGU-1 (AMURSAT)        
1 44394U 19038J   23004.90289792  .00016156  00000+0  70838-3 0  9997
2 44394  97.6548 342.1357 0018291 147.9333 212.3022 15.21917164193621
DOT-1                   
1 44399U 19038P   23004.86587521  .00010346  00000+0  51227-3 0  9994
2 44399  97.6650 340.1700 0022201 158.8563 201.3593 15.17763133193465
SOKRAT                  
1 44404U 19038U   23004.73025432  .00019403  00000+0  85674-3 0  9991
2 44404  97.6582 341.5455 0018726 151.1596 209.0678 15.21629353193578
LUCKY-7                 
1 44406U 19038W   23002.49600738  .00008046  00000+0  39256-3 0  9998
2 44406  97.6632 338.2643 0021847 158.4573 201.7584 15.18361452193137
D-STAR ONE (EXOCONNECT) 
1 44410U 19038AA  23004.65311473  .00035288  00000+0  13124-2 0  9991
2 44410  97.6505 343.3706 0016815 141.5661 218.6779 15.27297767193712
